*******************************************************************************Ephemeris / WWW_USER Mon Sep 21 19:18:11 2020 Pasadena, USA      / Horizons    *******************************************************************************Target body name: Mars (499)                      {source: mar097}Center body name: Earth (399)                     {source: mar097}Center-site name: (user defined site below)*******************************************************************************Start time      : A.D. 2021-Jan-22 00:00:00.0000 UT      Stop  time      : A.D. 2022-Feb-21 00:00:00.0000 UT      Step-size       : 3 calendar months*******************************************************************************Target pole/equ : IAU_MARS                        {West-longitude positive}Target radii    : 3396.2 x 3396.2 x 3376.2 km     {Equator, meridian, pole}    Center geodetic : 127.050000,37.5833000,0.0000000 {E-lon(deg),Lat(deg),Alt(km)}Center cylindric: 127.050000,5060.77125,3868.8948 {E-lon(deg),Dxy(km),Dz(km)}Center pole/equ : High-precision EOP model        {East-longitude positive}Center radii    : 6378.1 x 6378.1 x 6356.8 km     {Equator, meridian, pole}    Target primary  : SunVis. interferer : MOON (R_eq= 1737.400) km        {source: mar097}Rel. light bend : Sun, EARTH                      {source: mar097}Rel. lght bnd GM: 1.3271E+11, 3.9860E+05 km^3/s^2                              Atmos refraction: NO (AIRLESS)RA format       : HMSTime format     : CAL EOP file        : eop.200921.p201213                                           EOP coverage    : DATA-BASED 1962-JAN-20 TO 2020-SEP-21. PREDICTS-> 2020-DEC-12Units conversion: 1 au= 149597870.700 km, c= 299792.458 km/s, 1 day= 86400.0 s Table cut-offs 1: Elevation (-90.0deg=NO ),Airmass (>38.000=NO), Daylight (NO )Table cut-offs 2: Solar elongation (  0.0,180.0=NO ),Local Hour Angle( 0.0=NO )Table cut-offs 3: RA/DEC angular rate (     0.0=NO )                           Table format    : Comma Separated Values (spreadsheet)******************************************************************************* Date__(UT)__HR:MN, , , R.A._(ICRF), DEC__(ICRF),  L_Ap_Sid_Time,*****************************************************************$$SOE 2021-Jan-22 00:00,*, , 02 17 08.98, +14 58 45.2,  16 34 27.0124, 2021-Apr-22 00:00,*, , 05 54 44.36, +24 53 35.7,  22 29 16.9020, 2021-Jul-22 00:00,*, , 09 49 53.13, +14 20 02.8,  04 28 03.5910, 2021-Oct-22 00:00,*, , 13 29 32.21, -08 47 23.7,  10 30 46.5676, 2022-Jan-22 00:00,*,m, 17 50 39.39, -23 47 28.0,  16 33 29.8764,$$EOE*******************************************************************************Column meaning: TIME  Times PRIOR to 1962 are UT1, a mean-solar time closely related to theprior but now-deprecated GMT. Times AFTER 1962 are in UTC, the currentcivil or "wall-clock" time-scale. UTC is kept within 0.9 seconds of UT1using integer leap-seconds for 1972 and later years.  Conversion from the internal Barycentric Dynamical Time (TDB) of solarsystem dynamics to the non-uniform civil UT time-scale requested for outputhas not been determined for UTC times after the next July or January 1st.Therefore, the last known leap-second is used as a constant over futureintervals.  Time tags refer to the UT time-scale conversion from TDB on Earthregardless of observer location within the solar system, although clockrates may differ due to the local gravity field and no analog to "UT"may be defined for that location.  Any 'b' symbol in the 1st-column denotes a B.C. date. First-column blank(" ") denotes an A.D. date. Calendar dates prior to 1582-Oct-15 are in theJulian calendar system. Later calendar dates are in the Gregorian system.  NOTE: "n.a." in output means quantity "not available" at the print-time. SOLAR PRESENCE (OBSERVING SITE)  Time tag is followed by a blank, then a solar-presence symbol:        '*'  Daylight (refracted solar upper-limb on or above apparent horizon)        'C'  Civil twilight/dawn        'N'  Nautical twilight/dawn        'A'  Astronomical twilight/dawn        ' '  Night OR geocentric ephemerisLUNAR PRESENCE (OBSERVING SITE)  The solar-presence symbol is immediately followed by a lunar-presence symbol:        'm'  Refracted upper-limb of Moon on or above apparent horizon        ' '  Refracted upper-limb of Moon below apparent horizon OR geocentric             ephemeris  'R.A._(ICRF), DEC__(ICRF),' =  Astrometric right ascension and declination of the target center withrespect to the observing site (coordinate origin) in the reference frame ofthe planetary ephemeris (ICRF). Compensated for down-leg light-time delayaberration.  Units: RA  in hours-minutes-seconds of time,    HH MM SS.ff{ffff}         DEC in degrees-minutes-seconds of arc,  sDD MN SC.f{ffff}  'L_Ap_Sid_Time,' =   Local Apparent Sidereal Time. The angle measured westward in the bodytrue-equator of-date plane from the meridian containing the body-fixedobserver to the meridian containing the true Earth equinox (defined byintersection of the true Earth equator of date with the ecliptic of date).TOPOCENTRIC ONLY. Units: HH MM SS.ffff (hours-minutes-seconds of time) Computations by ...     Solar System Dynamics Group, Horizons On-Line Ephemeris System     4800 Oak Grove Drive, Jet Propulsion Laboratory     Pasadena, CA  91109   USA     Information  : https://ssd.jpl.nasa.gov/     Documentation: https://ssd.jpl.nasa.gov/?horizons_doc     Connect      : https://ssd.jpl.nasa.gov/?horizons (browser)                    telnet ssd.jpl.nasa.gov 6775       (command-line)                    e-mail command interface available                    Script and CGI interfaces available     Author       : Jon.D.Giorgini@jpl.nasa.gov*******************************************************************************